IRIDIUM 63              
1 25286U 98021B   25316.60920225  .00000870  00000+0  28895-3 0  9995
2 25286  86.4018  19.8537 0002269  99.1874 260.9580 14.36699861445154
IRIDIUM 69              
1 25319U 98026A   25316.51239362  .00001433  00000+0  43846-3 0  9991
2 25319  86.4008  32.7119 0000838 190.5683 169.5499 14.41167041444422
IRIDIUM 71              
1 25320U 98026B   25316.29322786  .00000730  00000+0  21986-3 0  9991
2 25320  86.4009  27.4801 0001652  28.5823 331.5467 14.41290676444927
IRIDIUM 73              
1 25344U 98032C   25316.80008882  .00001195  00000+0  29139-3 0  9993
2 25344  86.4419 343.7154 0002042 108.7061 251.4366 14.51930522452123
IRIDIUM 82              
1 25467U 98051A   25316.27174169  .00109712  00000+0  22285-2 0  9991
2 25467  86.3642  36.4014 0068480  91.5118 269.3984 15.43389750446699
